NORAD_CAT_ID,OBJECT_NAME,OBJECT_TYPE,EPOCH,MEAN_MOTION,ECCENTRICITY,INCLINATION,RA_OF_ASC_NODE,ARG_OF_PERICENTER,MEAN_ANOMALY,BSTAR,MEAN_MOTION_DOT,MEAN_MOTION_DDOT,TLE_LINE0,TLE_LINE1,TLE_LINE2,SEMIMAJOR_AXIS,PERIOD,APOGEE,PERIGEE,DECAYED
52840.0,STARLINK-4049,PAYLOAD,2024-03-10 07:23:34,15.0885087,0.0001426,53.2159,68.4497,90.6456,269.47,0.00023851,3.511e-05,0.0,0 STARLINK-4049,1 52840U 22062L   24070.30803296  .00003511  00000-0  23851-3 0  9997,2 52840  53.2159  68.4497 0001426  90.6456 269.4700 15.08850870 96169,6917.847,95.437,540.699,538.726,0.0
52840.0,STARLINK-4049,PAYLOAD,2024-03-10 16:55:53,15.08842121,0.0001364,53.2169,66.6646,83.84,276.2747,0.00014534,2.026e-05,0.0,0 STARLINK-4049,1 52840U 22062L   24070.70547517  .00002026  00000-0  14534-3 0  9990,2 52840  53.2169  66.6646 0001364  83.8400 276.2747 15.08842121 96224,6917.874,95.437,540.683,538.795,0.0
52840.0,STARLINK-4049,PAYLOAD,2024-03-11 05:38:58,15.08837166,0.0001388,53.2152,64.2861,85.5859,274.5292,7.7628e-05,9.48e-06,0.0,0 STARLINK-4049,1 52840U 22062L   24071.23539948  .00000948  00000-0  77628-4 0  9993,2 52840  53.2152  64.2861 0001388  85.5859 274.5292 15.08837166 96300,6917.889,95.438,540.714,538.794,0.0
52840.0,STARLINK-4049,PAYLOAD,2024-03-11 07:14:21,15.08839703,0.0001454,53.2159,63.9886,85.7474,274.3684,0.00010511,1.385e-05,0.0,0 STARLINK-4049,1 52840U 22062L   24071.30163850  .00001385  00000-0  10511-3 0  9999,2 52840  53.2159  63.9886 0001454  85.7474 274.3684 15.08839703 95827,6917.881,95.438,540.752,538.74,0.0
52840.0,STARLINK-4049,PAYLOAD,2024-03-12 08:40:31,15.08848302,0.0001566,53.2169,59.23,89.4322,270.685,0.00036564,5.537e-05,0.0,0 STARLINK-4049,1 52840U 22062L   24072.36147794  .00005537  00000-0  36564-3 0  9994,2 52840  53.2169  59.2300 0001566  89.4322 270.6850 15.08848302 96475,6917.855,95.437,540.803,538.637,0.0
52840.0,STARLINK-4049,PAYLOAD,2024-03-12 16:37:27,15.08842444,0.0001451,53.2165,57.7432,90.0783,270.0376,0.00026587,3.946e-05,0.0,0 STARLINK-4049,1 52840U 22062L   24072.69268048  .00003946  00000-0  26587-3 0  9992,2 52840  53.2165  57.7432 0001451  90.0783 270.0376 15.08842444 96526,6917.873,95.437,540.742,538.734,0.0
52840.0,STARLINK-4049,PAYLOAD,2024-03-13 05:20:32,15.08845013,0.0001528,53.2174,55.3626,101.2131,258.9032,0.00020107,2.914e-05,0.0,0 STARLINK-4049,1 52840U 22062L   24073.22259879  .00002914  00000-0  20107-3 0  9990,2 52840  53.2174  55.3626 0001528 101.2131 258.9032 15.08845013 96116,6917.865,95.437,540.787,538.673,0.0
52840.0,STARLINK-4049,PAYLOAD,2024-03-13 22:49:47,15.08841327,0.000156,53.2181,52.0895,103.7652,256.3514,9.5916e-05,1.239e-05,0.0,0 STARLINK-4049,1 52840U 22062L   24073.95124018  .00001239  00000-0  95916-4 0  9996,2 52840  53.2181  52.0895 0001560 103.7652 256.3514 15.08841327 96220,6917.876,95.437,540.821,538.662,0.0
52840.0,STARLINK-4049,PAYLOAD,2024-03-14 05:11:19,15.08844918,0.0001402,53.2178,50.902,99.7434,260.3716,0.00016915,2.405e-05,0.0,0 STARLINK-4049,1 52840U 22062L   24074.21619864  .00002405  00000-0  16915-3 0  9991,2 52840  53.2178  50.9020 0001402  99.7434 260.3716 15.08844918 96756,6917.865,95.437,540.7,538.76,0.0
52840.0,STARLINK-4049,PAYLOAD,2024-03-15 03:26:44,15.08835436,0.0001463,53.2182,46.7402,100.871,259.2447,9.7495e-06,-1.33e-06,0.0,0 STARLINK-4049,1 52840U 22062L   24075.14356504 -.00000133  00000-0  97495-5 0  9994,2 52840  53.2182  46.7402 0001463 100.8710 259.2447 15.08835436 96894,6917.894,95.438,540.771,538.747,0.0
52840.0,STARLINK-4049,PAYLOAD,2024-03-15 08:12:53,15.0883852,0.000144,53.2177,45.8468,104.354,255.7612,-4.154e-05,-9.49e-06,0.0,0 STARLINK-4049,1 52840U 22062L   24075.34228352 -.00000949  00000-0 -41540-4 0  9990,2 52840  53.2177  45.8468 0001440 104.3540 255.7612 15.08838520 96437,6917.885,95.438,540.746,538.754,0.0
52840.0,STARLINK-4049,PAYLOAD,2024-03-16 03:17:31,15.08838737,0.000139,53.2179,42.2805,101.8587,258.2561,6.1717e-05,6.94e-06,0.0,0 STARLINK-4049,1 52840U 22062L   24076.13716470  .00000694  00000-0  61717-4 0  9994,2 52840  53.2179  42.2805 0001390 101.8587 258.2561 15.08838737 96556,6917.884,95.438,540.711,538.788,0.0
52840.0,STARLINK-4049,PAYLOAD,2024-03-17 03:08:18,15.08841708,0.0001401,53.219,37.8197,102.25,257.8649,0.00012831,1.755e-05,0.0,0 STARLINK-4049,1 52840U 22062L   24077.13076559  .00001755  00000-0  12831-3 0  9993,2 52840  53.2190  37.8197 0001401 102.2500 257.8649 15.08841708 97191,6917.875,95.437,540.709,538.771,0.0
52840.0,STARLINK-4049,PAYLOAD,2024-03-17 06:19:04,15.08843253,0.0001531,53.2195,37.2255,110.7558,249.3598,0.00013785,1.907e-05,0.0,0 STARLINK-4049,1 52840U 22062L   24077.26324417  .00001907  00000-0  13785-3 0  9994,2 52840  53.2195  37.2255 0001531 110.7558 249.3598 15.08843253 96720,6917.87,95.437,540.795,538.676,0.0
52840.0,STARLINK-4049,PAYLOAD,2024-03-18 04:34:28,15.08846601,0.0001534,53.2202,33.0615,99.4139,260.7026,0.00013403,1.846e-05,0.0,0 STARLINK-4049,1 52840U 22062L   24078.19060188  .00001846  00000-0  13403-3 0  9998,2 52840  53.2202  33.0615 0001534  99.4139 260.7026 15.08846601 97357,6917.86,95.437,540.786,538.664,0.0
52840.0,STARLINK-4049,PAYLOAD,2024-03-18 06:09:51,15.08847436,0.000154,53.2202,32.7636,99.2822,260.8344,0.0001396,1.935e-05,0.0,0 STARLINK-4049,1 52840U 22062L   24078.25684108  .00001935  00000-0  13960-3 0  9996,2 52840  53.2202  32.7636 0001540  99.2822 260.8344 15.08847436 96877,6917.858,95.437,540.788,538.657,0.0
52840.0,STARLINK-4049,PAYLOAD,2024-03-19 06:00:37,15.08849553,0.0001579,53.2191,28.3025,108.6348,251.4815,0.00017954,2.571e-05,0.0,0 STARLINK-4049,1 52840U 22062L   24079.25043942  .00002571  00000-0  17954-3 0  9996,2 52840  53.2191  28.3025 0001579 108.6348 251.4815 15.08849553 97510,6917.851,95.437,540.809,538.624,0.0
52840.0,STARLINK-4049,PAYLOAD,2024-03-20 02:40:38,15.0885888,0.0001528,53.2189,24.4356,106.0012,254.1148,0.00019371,2.798e-05,0.0,0 STARLINK-4049,1 52840U 22062L   24080.11155165  .00002798  00000-0  19371-3 0  9990,2 52840  53.2189  24.4356 0001528 106.0012 254.1148 15.08858880 97157,6917.823,95.436,540.745,538.631,0.0
52840.0,STARLINK-4049,PAYLOAD,2024-03-21 02:31:26,15.08835899,0.0001378,53.2186,19.9757,95.0978,265.0172,-4.6146e-05,-1.022e-05,0.0,0 STARLINK-4049,1 52840U 22062L   24081.10516421 -.00001022  00000-0 -46146-4 0  9998,2 52840  53.2186  19.9757 0001378  95.0978 265.0172 15.08835899 97792,6917.893,95.438,540.711,538.805,0.0
52840.0,STARLINK-4049,PAYLOAD,2024-03-22 02:22:12,15.0886417,0.0001404,53.2187,15.5187,105.8392,254.2755,0.00054681,8.431e-05,0.0,0 STARLINK-4049,1 52840U 22062L   24082.09875474  .00008431  00000-0  54681-3 0  9994,2 52840  53.2187  15.5187 0001404 105.8392 254.2755 15.08864170 97940,6917.807,95.436,540.643,538.7,0.0
52840.0,STARLINK-4049,PAYLOAD,2024-03-22 05:32:58,15.08860316,0.0001504,53.2192,14.9177,98.5449,261.5714,0.00044984,6.882e-05,0.0,0 STARLINK-4049,1 52840U 22062L   24082.23123436  .00006882  00000-0  44984-3 0  9997,2 52840  53.2192  14.9177 0001504  98.5449 261.5714 15.08860316 97472,6917.818,95.436,540.724,538.643,0.0
52840.0,STARLINK-4049,PAYLOAD,2024-03-23 05:23:46,15.08841413,0.0001339,53.2191,10.4606,82.0993,278.0151,0.00010518,1.386e-05,0.0,0 STARLINK-4049,1 52840U 22062L   24083.22484519  .00001386  00000-0  10518-3 0  9999,2 52840  53.2191  10.4606 0001339  82.0993 278.0151 15.08841413 98114,6917.876,95.437,540.667,538.815,0.0
52840.0,STARLINK-4049,PAYLOAD,2024-03-23 18:06:52,15.08831148,0.0001656,53.219,8.0779,121.8736,238.2417,-0.00018244,-3.19e-05,0.0,0 STARLINK-4049,1 52840U 22062L   24083.75476861 -.00003190  00000-0 -18244-3 0  9999,2 52840  53.2190   8.0779 0001656 121.8736 238.2417 15.08831148 98191,6917.907,95.438,540.918,538.627,0.0
52840.0,STARLINK-4049,PAYLOAD,2024-03-23 22:53:01,15.08839008,0.0001358,53.2186,7.1893,100.7589,259.3556,4.135e-05,3.7e-06,0.0,0 STARLINK-4049,1 52840U 22062L   24083.95348586  .00000370  00000-0  41350-4 0  9993,2 52840  53.2186   7.1893 0001358 100.7589 259.3556 15.08839008 97734,6917.883,95.438,540.688,538.809,0.0
52840.0,STARLINK-4049,PAYLOAD,2024-03-24 05:14:33,15.08858717,0.0001341,53.2194,6.0003,101.5854,258.5289,0.001081,0.00016967,0.0,0 STARLINK-4049,1 52840U 22062L   24084.21844229  .00016967  00000-0  10810-2 0  9992,2 52840  53.2194   6.0003 0001341 101.5854 258.5289 15.08858717 98261,6917.823,95.436,540.616,538.76,0.0
52840.0,STARLINK-4049,PAYLOAD,2024-03-24 11:36:06,15.08838173,0.0001466,53.2194,4.8134,84.1006,276.0153,0.00047458,7.273e-05,0.0,0 STARLINK-4049,1 52840U 22062L   24084.48340791  .00007273  00000-0  47458-3 0  9995,2 52840  53.2194   4.8134 0001466  84.1006 276.0153 15.08838173 98309,6917.886,95.438,540.765,538.737,0.0
52840.0,STARLINK-4049,PAYLOAD,2024-03-24 22:43:49,15.08819282,0.0001397,53.219,2.731,80.4568,279.6582,-0.00015608,-2.77e-05,0.0,0 STARLINK-4049,1 52840U 22062L   24084.94709899 -.00002770  00000-0 -15608-3 0  9995,2 52840  53.2190   2.7310 0001397  80.4568 279.6582 15.08819282 97880,6917.944,95.439,540.775,538.842,0.0
52840.0,STARLINK-4049,PAYLOAD,2024-03-25 03:29:58,15.08837302,0.0001543,53.2187,1.8391,86.9274,273.1895,0.00037877,5.745e-05,0.0,0 STARLINK-4049,1 52840U 22062L   24085.14581523  .00005745  00000-0  37877-3 0  9995,2 52840  53.2187   1.8391 0001543  86.9274 273.1895 15.08837302 98401,6917.889,95.438,540.821,538.686,0.0
52840.0,STARLINK-4049,PAYLOAD,2024-03-25 11:26:54,15.08824542,0.000132,53.2188,0.3527,101.0479,259.0662,0.00016453,2.33e-05,0.0,0 STARLINK-4049,1 52840U 22062L   24085.47702275  .00002330  00000-0  16453-3 0  9994,2 52840  53.2188   0.3527 0001320 101.0479 259.0662 15.08824542 98458,6917.928,95.439,540.706,538.879,0.0
52840.0,STARLINK-4049,PAYLOAD,2024-03-25 22:34:37,15.08823288,0.000157,53.2188,358.2711,99.088,261.029,0.00041015,6.243e-05,0.0,0 STARLINK-4049,1 52840U 22062L   24085.94071187  .00006243  00000-0  41015-3 0  9996,2 52840  53.2188 358.2711 0001570  99.0880 261.0290 15.08823288 98037,6917.931,95.439,540.883,538.71,0.0
